[
    {
        "Altitude(m)": 705913.1650049817,
        "Argument of Periapsis(deg)": 0.0034170363559881197,
        "Eccentricity": 0.0,
        "Inclination(deg)": 45.0,
        "Latitude(deg)": 38.76770380269878,
        "Longitude(deg)": -128.22433269481994,
        "Mean Anomaly(deg)": 118.00546499424426,
        "RAAN(deg)": 204.99677441756256,
        "Satellite Name": "Constellation 1 909",
        "Satellite Number": 909,
        "Semi-Major Axis(m)": 7083131.272910544,
        "Time(s)": 57
    },
    {
        "Altitude(m)": 705907.749305279,
        "Argument of Periapsis(deg)": 0.003476984362233526,
        "Eccentricity": 0.0,
        "Inclination(deg)": 45.0,
        "Latitude(deg)": 38.741775919456906,
        "Longitude(deg)": -128.15813927064883,
        "Mean Anomaly(deg)": 118.06616613449411,
        "RAAN(deg)": 204.99671782839698,
        "Satellite Name": "Constellation 1 909",
        "Satellite Number": 909,
        "Semi-Major Axis(m)": 7083131.272910544,
        "Time(s)": 58
    },
    {
        "Altitude(m)": 705902.3273585504,
        "Argument of Periapsis(deg)": 0.003536932368478932,
        "Eccentricity": 0.0,
        "Inclination(deg)": 45.0,
        "Latitude(deg)": 38.71580568615359,
        "Longitude(deg)": -128.09199684385595,
        "Mean Anomaly(deg)": 118.12686727474407,
        "RAAN(deg)": 204.9966612392314,
        "Satellite Name": "Constellation 1 909",
        "Satellite Number": 909,
        "Semi-Major Axis(m)": 7083131.272910544,
        "Time(s)": 59
    },
    {
        "Altitude(m)": 705896.8991980869,
        "Argument of Periapsis(deg)": 0.003596880374724337,
        "Eccentricity": 0.0,
        "Inclination(deg)": 45.0,
        "Latitude(deg)": 38.68979317187126,
        "Longitude(deg)": -128.02590507693873,
        "Mean Anomaly(deg)": 118.18756841499398,
        "RAAN(deg)": 204.99660465006582,
        "Satellite Name": "Constellation 1 909",
        "Satellite Number": 909,
        "Semi-Major Axis(m)": 7083131.272910544,
        "Time(s)": 60
    },
    {
        "Altitude(m)": 705891.4648572109,
        "Argument of Periapsis(deg)": 0.0036568283809697427,
        "Eccentricity": 0.0,
        "Inclination(deg)": 45.0,
        "Latitude(deg)": 38.663738445671655,
        "Longitude(deg)": -127.95986413630374,
        "Mean Anomaly(deg)": 118.24826955524385,
        "RAAN(deg)": 204.99654806090027,
        "Satellite Name": "Constellation 1 909",
        "Satellite Number": 909,
        "Semi-Major Axis(m)": 7083131.272910544,
        "Time(s)": 61
    },
    {
        "Altitude(m)": 705886.0243693022,
        "Argument of Periapsis(deg)": 0.003716776387215149,
        "Eccentricity": 0.0,
        "Inclination(deg)": 45.0,
        "Latitude(deg)": 38.63764157659419,
        "Longitude(deg)": -127.89387401988033,
        "Mean Anomaly(deg)": 118.30897069549374,
        "RAAN(deg)": 204.99649147173471,
        "Satellite Name": "Constellation 1 909",
        "Satellite Number": 909,
        "Semi-Major Axis(m)": 7083131.272910544,
        "Time(s)": 62
    },
    {
        "Altitude(m)": 705880.5777677799,
        "Argument of Periapsis(deg)": 0.003776724393460554,
        "Eccentricity": 0.0,
        "Inclination(deg)": 45.0,
        "Latitude(deg)": 38.61150263365594,
        "Longitude(deg)": -127.82793472521918,
        "Mean Anomaly(deg)": 118.3696718357436,
        "RAAN(deg)": 204.99643488256913,
        "Satellite Name": "Constellation 1 909",
        "Satellite Number": 909,
        "Semi-Major Axis(m)": 7083131.272910544,
        "Time(s)": 63
    },
    {
        "Altitude(m)": 705875.1250861168,
        "Argument of Periapsis(deg)": 0.003836672399705959,
        "Eccentricity": 0.0,
        "Inclination(deg)": 45.0,
        "Latitude(deg)": 38.58532168585103,
        "Longitude(deg)": -127.76204624949372,
        "Mean Anomaly(deg)": 118.43037297599355,
        "RAAN(deg)": 204.99637829340358,
        "Satellite Name": "Constellation 1 909",
        "Satellite Number": 909,
        "Semi-Major Axis(m)": 7083131.272910544,
        "Time(s)": 64
    },
    {
        "Altitude(m)": 705869.666357821,
        "Argument of Periapsis(deg)": 0.003896620405951365,
        "Eccentricity": 0.0,
        "Inclination(deg)": 45.0,
        "Latitude(deg)": 38.55909880215018,
        "Longitude(deg)": -127.69620858950161,
        "Mean Anomaly(deg)": 118.49107411624342,
        "RAAN(deg)": 204.99632170423797,
        "Satellite Name": "Constellation 1 909",
        "Satellite Number": 909,
        "Semi-Major Axis(m)": 7083131.272910544,
        "Time(s)": 65
    },
    {
        "Altitude(m)": 705864.201616451,
        "Argument of Periapsis(deg)": 0.003956568412196771,
        "Eccentricity": 0.0,
        "Inclination(deg)": 45.0,
        "Latitude(deg)": 38.53283405150019,
        "Longitude(deg)": -127.63042174166623,
        "Mean Anomaly(deg)": 118.5517752564933,
        "RAAN(deg)": 204.99626511507242,
        "Satellite Name": "Constellation 1 909",
        "Satellite Number": 909,
        "Semi-Major Axis(m)": 7083131.272910544,
        "Time(s)": 66
    },
    {
        "Altitude(m)": 705858.7308956082,
        "Argument of Periapsis(deg)": 0.004016516418442176,
        "Eccentricity": 0.0,
        "Inclination(deg)": 45.0,
        "Latitude(deg)": 38.50652750282374,
        "Longitude(deg)": -127.56468587013474,
        "Mean Anomaly(deg)": 118.61247639674329,
        "RAAN(deg)": 204.99620852590684,
        "Satellite Name": "Constellation 1 909",
        "Satellite Number": 909,
        "Semi-Major Axis(m)": 7083131.272910544,
        "Time(s)": 67
    },
    {
        "Altitude(m)": 705853.2542289463,
        "Argument of Periapsis(deg)": 0.004076464424687581,
        "Eccentricity": 0.0,
        "Inclination(deg)": 45.0,
        "Latitude(deg)": 38.48017922501807,
        "Longitude(deg)": -127.49900063439253,
        "Mean Anomaly(deg)": 118.67317753699314,
        "RAAN(deg)": 204.99615193674128,
        "Satellite Name": "Constellation 1 909",
        "Satellite Number": 909,
        "Semi-Major Axis(m)": 7083131.272910544,
        "Time(s)": 68
    },
    {
        "Altitude(m)": 705847.7716501518,
        "Argument of Periapsis(deg)": 0.004136412430932987,
        "Eccentricity": 0.0,
        "Inclination(deg)": 45.0,
        "Latitude(deg)": 38.45378928695571,
        "Longitude(deg)": -127.43336619784522,
        "Mean Anomaly(deg)": 118.73387867724307,
        "RAAN(deg)": 204.99609534757568,
        "Satellite Name": "Constellation 1 909",
        "Satellite Number": 909,
        "Semi-Major Axis(m)": 7083131.272910544,
        "Time(s)": 69
    },
    {
        "Altitude(m)": 705842.2831929614,
        "Argument of Periapsis(deg)": 0.004196360437178394,
        "Eccentricity": 0.0,
        "Inclination(deg)": 45.0,
        "Latitude(deg)": 38.42735775748324,
        "Longitude(deg)": -127.36778255543368,
        "Mean Anomaly(deg)": 118.7945798174929,
        "RAAN(deg)": 204.99603875841012,
        "Satellite Name": "Constellation 1 909",
        "Satellite Number": 909,
        "Semi-Major Axis(m)": 7083131.272910544,
        "Time(s)": 70
    },
    {
        "Altitude(m)": 705836.7888911607,
        "Argument of Periapsis(deg)": 0.004256308443423799,
        "Eccentricity": 0.0,
        "Inclination(deg)": 45.0,
        "Latitude(deg)": 38.400884705420836,
        "Longitude(deg)": -127.30224970173072,
        "Mean Anomaly(deg)": 118.85528095774288,
        "RAAN(deg)": 204.99598216924457,
        "Satellite Name": "Constellation 1 909",
        "Satellite Number": 909,
        "Semi-Major Axis(m)": 7083131.272910544,
        "Time(s)": 71
    },
    {
        "Altitude(m)": 705831.2887785721,
        "Argument of Periapsis(deg)": 0.004316256449669204,
        "Eccentricity": 0.0,
        "Inclination(deg)": 45.0,
        "Latitude(deg)": 38.37437019956229,
        "Longitude(deg)": -127.23676763094458,
        "Mean Anomaly(deg)": 118.91598209799277,
        "RAAN(deg)": 204.995925580079,
        "Satellite Name": "Constellation 1 909",
        "Satellite Number": 909,
        "Semi-Major Axis(m)": 7083131.272910544,
        "Time(s)": 72
    },
    {
        "Altitude(m)": 705825.7828890661,
        "Argument of Periapsis(deg)": 0.00437620445591461,
        "Eccentricity": 0.0,
        "Inclination(deg)": 45.0,
        "Latitude(deg)": 38.34781430867394,
        "Longitude(deg)": -127.17133633691873,
        "Mean Anomaly(deg)": 118.9766832382426,
        "RAAN(deg)": 204.99586899091344,
        "Satellite Name": "Constellation 1 909",
        "Satellite Number": 909,
        "Semi-Major Axis(m)": 7083131.272910544,
        "Time(s)": 73
    },
    {
        "Altitude(m)": 705820.2712565569,
        "Argument of Periapsis(deg)": 0.004436152462160016,
        "Eccentricity": 0.0,
        "Inclination(deg)": 45.0,
        "Latitude(deg)": 38.3212171014948,
        "Longitude(deg)": -127.10595598123075,
        "Mean Anomaly(deg)": 119.03738437849256,
        "RAAN(deg)": 204.99581240174783,
        "Satellite Name": "Constellation 1 909",
        "Satellite Number": 909,
        "Semi-Major Axis(m)": 7083131.272910544,
        "Time(s)": 74
    },
    {
        "Altitude(m)": 705814.7539150018,
        "Argument of Periapsis(deg)": 0.0044961004684054215,
        "Eccentricity": 0.0,
        "Inclination(deg)": 45.0,
        "Latitude(deg)": 38.29457864673527,
        "Longitude(deg)": -127.04062622080679,
        "Mean Anomaly(deg)": 119.09808551874245,
        "RAAN(deg)": 204.99575581258227,
        "Satellite Name": "Constellation 1 909",
        "Satellite Number": 909,
        "Semi-Major Axis(m)": 7083131.272910544,
        "Time(s)": 75
    }
]